#dP2024  3 18 18  0  0.00000000      96 __u+U IGS20 EXT  IAC
## 2306 151200.00000000   900.00000000 60387 0.7500000000000
+  119   C06C07C08C09C10C11C12C13C14C16C19C20C21C22C23C24C25
+        C26C27C28C29C30C32C33C34C35C36C37C38C39C40C41C42C43
+        C44C45C46E02E03E04E05E07E08E09E10E11E12E13E14E15E18
+        E19E21E24E25E26E27E30E31E33E34E36G01G02G03G04G05G06
+        G07G08G09G10G11G12G13G14G15G16G17G18G19G20G21G22G23
+        G24G25G26G27G28G29G30G31G32J02J03R01R02R03R04R05R07
+        R08R09R11R12R13R14R15R16R17R18R19R20R21R22R24R25R26
++        10  9 10 14 10  8  8  9  8 10 10  9  9  8  8 10  7
++         9  7  7  9  9  8  8  8  8 10  8  9  9  7  9  8  9
++         9  9  8  8  7  8  8  9  8  8  7  8  8  7  7  8  8
++         7  8  9  8  6  8  7  8  7  7  8  7  7  7  7  6  7
++         8  6  7  6  6  6  7  7  7  8  8  8  7  7  9  7  7
++         8  6  8  7 10  8  8  6  7  9  8  6  9  7  7  8  8
++         8  8  7  7  7  8  7  7  8  9  8 10  9  8  8  7  9
%c M  cc GPS ccc cccc cccc cccc cccc ccccc ccccc ccccc ccccc
%c cc cc ccc ccc cccc cccc cccc cccc ccccc ccccc ccccc ccccc
%f  0.0000000  0.000000000  0.00000000000  0.000000000000000
%f  0.0000000  0.000000000  0.00000000000  0.000000000000000
%i    0    0    0    0      0      0      0      0         0
%i    0    0    0    0      0      0      0      0         0
/* IAC                                ULTRA-RAPID PREDICTION
/* S/V CLOCKS ARE ALIGNED TO GNSS TIME                      
/* G:C1WC2W R:C1PC2P E:C1XC5X C:C2IC6I J:C1CC2S             
/* PCV:IGS20_2290 OL/AL:FES2004  NONE     YN ORB:CoN CLK:CoN
*  2024 03 19  2  0  0.00000000
PC06 -17746.252927  31915.218759  20889.140820    282.958469
PC07  -5479.823246  38103.865716  17514.008550   -902.380645
PC08  -5986.013520  19436.932925 -36928.565830     49.961196
PC09 -11256.046664  30615.883483  26821.564088   -640.223166
PC10    894.043408  40920.741320  11585.195021     39.149604
PC11  18911.826523  -3547.897293 -20144.532256    466.998344
PC12   7542.702458  15107.655304 -22180.353511   -215.795585
PC13   2776.432534  23148.795242 -34916.378842    425.780856
PC14  18557.450431   7147.260172  19621.857229    438.310344
PC16 -21423.848608  31575.932294  17832.671441   -404.620861
PC19 -15633.458842   3268.590916 -22850.923535   -918.506127
PC20 -18530.392386 -14860.313013 -14602.161106   -270.962537
PC21  10401.015231  25697.094450  -3323.632882   -961.394574
PC22  -3601.099504  20628.076703 -18458.999697    -69.890130
PC23  13927.263393 -13667.161209 -19950.086337   -776.150877
PC24  24207.080816   8964.846063  10554.849625    953.026215
PC25  26681.957241  -4203.016051  -6984.709080    352.973192
PC26   8157.822553  15755.531803  21512.463630   -264.762732
PC27   -696.333556 -21449.086566  17824.346692    286.648102
PC28  12656.499985 -24489.591018   4355.521618    218.685605
PC29 -19935.325990  13003.710515  14557.179914    256.445400
PC30 -14487.536600  -7018.153197  22783.766454    -40.525497
PC32 -10501.565145 -25612.613057   3466.102727   -585.481519
PC33  15717.137573  -3239.628757  22841.238864   -959.498615
PC34  15441.476062   5379.176378 -22629.917315    393.153034
PC35 -11809.919931  24912.529575  -4189.343316    407.873983
PC36 -26897.517865   3361.997155   6670.011118     22.939722
PC37  -7445.888188 -15994.131171 -21621.622016   -946.270407
PC38 -14722.643660  18437.768310 -34905.950886    143.590538
PC39 -24636.598578  32064.339539  11597.482282     -7.623159
PC40  -9677.466377  35361.959000  21058.306600    -61.415809
PC41   4262.073493 -20041.984772  18994.366489   -908.047738
PC42  18413.966348  16243.714623  13340.471607   -446.397820
PC43  20056.298554 -12096.224195 -15203.090898     64.660777
PC44   1537.278233  21532.740015 -17681.488492    417.454933
PC45 -13888.516615  13545.867769  20059.841128    -76.282609
PC46 -24700.022306  -8510.646301  -9873.838607   -132.777228
PE02 -17380.192848 -21815.117165  -9946.928025    112.329948
PE03  -7312.252077 -24704.595912 -14560.646139   -101.260787
PE04  16250.688951   5792.499333  24065.106560   -352.942872
PE05   5750.383867 -28848.120740   3294.611588   4730.359864
PE07 -15640.060552  15785.275875 -19549.897682   -109.698720
PE08 -15931.530145  -6621.403212 -24046.111447   -241.112803
PE09  15562.523432 -15659.493817  19716.410233   -375.491388
PE10  27868.470494  -7003.706120  -7119.458657   -610.380322
PE11  26140.878493 -13497.840181   3362.441605   3155.296038
PE12  25338.668755    -36.496753 -15325.167764   -954.784097
PE13 -26358.846710  13169.909508  -2724.301209    -20.603613
PE14  13575.736224 -18112.999734 -12603.133261     70.364204
PE15 -25021.429966   -329.236853  15806.227435    -92.028717
PE18  -6601.584667  30568.828219   1626.092723    451.250398
PE19   5773.066290  26006.126232  12917.434518   -406.941064
PE21   -304.752114  19229.349055  22491.909564   -584.674891
PE24  18873.207874  -5054.438603 -22251.314458   -658.854218
PE25    715.406407 -19052.800468 -22646.249962      2.278503
PE26 -11598.869733  18856.100728 -19638.880503    400.451164
PE27 -18602.585192   5340.668272  22392.885057   -302.232597
PE30 -25675.262164 -11748.714245   8890.062567   -108.995875
PE31  25703.011169  11515.549877  -9099.990740    -18.612239
PE33   8481.666224  13695.173232 -24829.030200      9.200671
PE34  -9074.450650 -13406.699538  24777.833239   -100.753926
PE36  12287.584292 -18748.468388  19343.479104   -201.171007
PG01   2816.633638  14671.493115 -22281.874848    174.721427
PG02  -7230.935384  17932.694226 -17600.686830   -468.009799
PG03   5921.558474  18922.623195 -17879.419957    260.340814
PG04  -1515.701555  26296.933304   2821.614004    318.222471
PG05   7788.578729 -12740.478655  21789.979551   -165.904500
PG06  24699.667557  -4577.279418  -8731.944819    361.822470
PG07  13834.579805  10110.888018  20899.846100    -87.479327
PG08  -6088.542091  24805.342284   6309.839092     64.757832
PG09   8612.206991  20543.691305  14344.653675    129.428666
PG10 -23322.884279  -9643.581056  -8574.617338     -1.131160
PG11  23474.472105 -11893.549130   3431.286972   -610.896247
PG12  -3437.501802 -19293.643330 -18243.230770   -488.471816
PG13  13331.846292 -19077.910458  12379.884038    635.340573
PG14  22927.341948  12555.041734  -5243.551435    354.085372
PG15   2961.488580 -25511.987540   5840.888790    139.122111
PG16 -13758.632986   7610.427912  21133.143897   -337.879156
PG17  13216.952671   8459.487687 -20984.514305    713.170413
PG18 -14336.889302  -8975.362487  20538.401639   -578.221351
PG19  15489.966705  -1461.759630 -21667.479295    455.917532
PG20  18541.431539  -5495.992846  18201.470962    383.422790
PG21 -11787.348329  18125.090664 -14249.515400    130.807742
PG22  21893.870715   7461.048001 -12366.163125     13.826313
PG23 -20697.830120 -16508.608949   3195.061578    180.306291
PG24   8203.141197 -19029.791192 -16794.638023   -448.198461
PG25 -13987.733407 -19727.604422 -11621.386323    491.660002
PG26 -21936.601381   -139.620197  15071.152757    177.836638
PG27 -12616.055053  16605.893361  15906.265911    -12.783809
PG28 -23882.935175   3101.743905 -11210.533902   -169.627441
PG29  -5201.031862 -22387.228483  13166.639730   -604.441957
PG30  22096.249381   2081.010822  14920.088528   -417.803434
PG31 -25049.154261   9336.284572  -1808.371750   -227.992500
PG32 -14621.466022  -4769.959238 -21464.692667   -616.233080
PJ02 -26770.714063  21566.686477  29513.832849     -3.062549
PJ03 -35511.163249  22406.281263    537.123945     -0.177887
PR01  -4093.200552 -24050.392168   7431.830529     80.072724
PR02 -10755.601813 -20881.873641  -9974.681307    -22.604056
PR03 -12226.654330  -5498.872974 -21660.112907     96.618013
PR04  -6734.405687  12333.259216 -21250.100702    228.185166
PR05   2129.800598  23613.894900  -9363.398826    128.612865
PR07  12092.389738   4427.240144  22057.027374     78.265618
PR08   6661.686755 -12667.206206  21188.710157    -74.773329
PR09  18740.244981  10793.711245  13607.924676    176.116361
PR11  18401.374756  -4162.337551 -17169.365859     30.804536
PR12   -921.547842 -11433.291458 -22764.954309     37.968802
PR13 -16644.482609 -11410.196755 -15623.149533    -45.427912
PR14 -24974.167842  -4175.267620   3010.267276     26.236779
PR15 -17253.286288   4898.066333  18149.409614     81.243864
PR16    722.793680  11245.148295  22890.725235     24.132638
PR17 -17194.533528   6077.140996  17857.388273     70.224580
PR18 -18812.299442  16831.017970   3472.047862    132.857384
PR19 -12600.333972  19031.727469 -11385.335996   -269.855253
PR20   4786.442156   9649.935087 -23111.104591   -109.997911
PR21  17217.373284  -6047.430429 -17814.572817    -85.649120
PR22  19064.883527 -16806.486305  -2263.547819    113.468469
PR24  -5976.234709  -9375.030808  22972.270756    -48.320009
PR25  17642.717339  -5325.163527 -17624.485225    -23.596806
PR26   7075.880176 -11661.012566  21574.663370    -29.558688
EOF
